     2.10           G: GLO NAV DATA                         RINEX VERSION / TYPE
sbf2rin-12.1.2                          17-OCT-18 13:27     PGM / RUN BY / DATE 
    18                                                      LEAP SECONDS        
                                                            END OF HEADER       
01 18 10 16 19 45  0.0 3.354810178280E-05 0.000000000000E+00 7.032000000000E+04
   -1.489489208984E+04 1.741772651672E+00-9.313225746155E-10 0.000000000000E+00
   -1.481627001953E+04 9.467134475708E-01 9.313225746155E-10 1.000000000000E+00
    1.445247412109E+04 2.766227722168E+00-9.313225746155E-10 0.000000000000E+00
22 18 10 16 19 45  0.0-6.496813148260E-05 0.000000000000E+00 7.032000000000E+04
    1.631755859375E+03-1.784009933472E-01 9.313225746155E-10 0.000000000000E+00
   -2.463465478516E+04 9.204254150391E-01-0.000000000000E+00-3.000000000000E+00
   -6.647201660156E+03-3.443243026733E+00-0.000000000000E+00 0.000000000000E+00
10 18 10 16 19 45  0.0 3.362260758877E-05 9.094947017729E-13 7.032000000000E+04
    2.167711279297E+04-2.381114959717E-01 1.862645149231E-09 0.000000000000E+00
   -1.348819677734E+04-9.506320953369E-02-0.000000000000E+00-7.000000000000E+00
    1.069630371094E+03 3.578994750977E+00-1.862645149231E-09 0.000000000000E+00
16 18 10 16 19 45  0.0 1.040967181325E-04 0.000000000000E+00 7.077000000000E+04
    4.534353515625E+03-2.582137107849E+00-9.313225746155E-10 0.000000000000E+00
    1.019814160156E+04 1.790119171143E+00 9.313225746155E-10-1.000000000000E+00
    2.292813427734E+04-2.753696441650E-01-9.313225746155E-10 0.000000000000E+00
08 18 10 16 20 15  0.0 2.091843634844E-05 0.000000000000E+00 7.200000000000E+04
    5.338893066406E+03 2.972948074341E+00-0.000000000000E+00 0.000000000000E+00
   -9.763766113281E+03 9.978208541870E-01 9.313225746155E-10 6.000000000000E+00
    2.299847167969E+04-2.675819396973E-01-2.793967723846E-09 0.000000000000E+00
09 18 10 16 20 15  0.0 3.379490226507E-05 2.728484105319E-12 7.200000000000E+04
    1.581966210938E+04-2.116768836975E+00-0.000000000000E+00 0.000000000000E+00
   -8.264082031250E+02 1.733435630798E+00 0.000000000000E+00-2.000000000000E+00
    2.003519433594E+04 1.738090515137E+00-1.862645149231E-09 0.000000000000E+00
07 18 10 16 20 15  0.0-4.945788532495E-05-0.000000000000E+00 7.200000000000E+04
    2.014979101563E+04 2.057157516479E+00 0.000000000000E+00 0.000000000000E+00
   -1.013499511719E+03 5.771646499634E-01 0.000000000000E+00 5.000000000000E+00
    1.561427832031E+04-2.625308036804E+00-1.862645149231E-09 0.000000000000E+00
24 18 10 16 20 15  0.0-1.726346090436E-04-0.000000000000E+00 7.200000000000E+04
   -1.123924951172E+04-6.215019226074E-01-9.313225746155E-10 0.000000000000E+00
   -1.210863281250E+04-2.597025871277E+00 9.313225746155E-10 2.000000000000E+00
    1.941019531250E+04-1.976677894592E+00-9.313225746155E-10 0.000000000000E+00
01 18 10 16 20 15  0.0 3.354903310537E-05 0.000000000000E+00 7.200000000000E+04
   -1.112094775391E+04 2.426741600037E+00-9.313225746155E-10 0.000000000000E+00
   -1.314840869141E+04 8.669929504395E-01 9.313225746155E-10 1.000000000000E+00
    1.880807617188E+04 2.041903495789E+00-9.313225746155E-10 0.000000000000E+00
10 18 10 16 20 15  0.0 3.362447023392E-05 9.094947017729E-13 7.200000000000E+04
    2.062533056641E+04-8.983373641968E-01 9.313225746155E-10 0.000000000000E+00
   -1.314214160156E+04 5.066699981689E-01-0.000000000000E+00-7.000000000000E+00
    7.387840332031E+03 3.395854949951E+00-2.793967723846E-09 0.000000000000E+00
16 18 10 16 20 15  0.0 1.040985807776E-04 9.094947017729E-13 7.200000000000E+04
    2.396162109375E+02-2.155697822571E+00-9.313225746155E-10 0.000000000000E+00
    1.365816162109E+04 2.016350746155E+00 9.313225746155E-10-1.000000000000E+00
    2.155243408203E+04-1.242955207825E+00-9.313225746155E-10 0.000000000000E+00
